{"fetched_at":"2026-07-05T17:41:41.697Z","source":"https://celestrak.org/NORAD/elements/gp.php?NAME=SENTINEL&FORMAT=JSON","constellation":"sentinel-6","records":[{"OBJECT_NAME":"SENTINEL-6A","OBJECT_ID":"2020-086A","EPOCH":"2026-07-04T11:54:50.478912","CLASSIFICATION_TYPE":"U","MEAN_MOTION":12.80930021,"ECCENTRICITY":0.00078375,"INCLINATION":66.0414,"RA_OF_ASC_NODE":99.1022,"ARG_OF_PERICENTER":270.0559,"MEAN_ANOMALY":89.9558,"EPHEMERIS_TYPE":0,"NORAD_CAT_ID":46984,"ELEMENT_SET_NO":999,"REV_AT_EPOCH":26254,"BSTAR":0.000098233676,"MEAN_MOTION_DOT":-3.8e-7,"MEAN_MOTION_DDOT":0},{"OBJECT_NAME":"SENTINEL-6B","OBJECT_ID":"2025-264A","EPOCH":"2026-07-04T17:32:37.816800","CLASSIFICATION_TYPE":"U","MEAN_MOTION":12.80930074,"ECCENTRICITY":0.00079163,"INCLINATION":66.0414,"RA_OF_ASC_NODE":98.7411,"ARG_OF_PERICENTER":268.9242,"MEAN_ANOMALY":91.0867,"EPHEMERIS_TYPE":0,"NORAD_CAT_ID":66514,"ELEMENT_SET_NO":999,"REV_AT_EPOCH":2941,"BSTAR":0.00011456746,"MEAN_MOTION_DOT":-3.5e-7,"MEAN_MOTION_DDOT":0}]}
